[
    {
        "Altitude(m)": 559159.3428672414,
        "Argument of Periapsis(deg)": 0.013245982221427002,
        "Eccentricity": 0.0,
        "Inclination(deg)": 53.0,
        "Latitude(deg)": 49.9151001698477,
        "Longitude(deg)": -38.64618218148604,
        "Mean Anomaly(deg)": 72.91048573515516,
        "RAAN(deg)": -0.019713262943966355,
        "Satellite Name": "Starlink Shell 1 3",
        "Satellite Number": 3,
        "Semi-Major Axis(m)": 6931778.249405717,
        "Time(s)": 380
    },
    {
        "Altitude(m)": 559210.8358178209,
        "Argument of Periapsis(deg)": 0.013594560700938237,
        "Eccentricity": 0.0,
        "Inclination(deg)": 53.0,
        "Latitude(deg)": 50.13954358513622,
        "Longitude(deg)": -37.77869313639473,
        "Mean Anomaly(deg)": 73.53731693871188,
        "RAAN(deg)": -0.020232033021439152,
        "Satellite Name": "Starlink Shell 1 3",
        "Satellite Number": 3,
        "Semi-Major Axis(m)": 6931778.249405717,
        "Time(s)": 390
    },
    {
        "Altitude(m)": 559260.6749601108,
        "Argument of Periapsis(deg)": 0.013943139180449475,
        "Eccentricity": 0.0,
        "Inclination(deg)": 53.0,
        "Latitude(deg)": 50.35680422873454,
        "Longitude(deg)": -36.90280523935899,
        "Mean Anomaly(deg)": 74.1641481422686,
        "RAAN(deg)": -0.020750803098911953,
        "Satellite Name": "Starlink Shell 1 3",
        "Satellite Number": 3,
        "Semi-Major Axis(m)": 6931778.249405717,
        "Time(s)": 400
    },
    {
        "Altitude(m)": 559308.8300520435,
        "Argument of Periapsis(deg)": 0.014291717659960712,
        "Eccentricity": 0.0,
        "Inclination(deg)": 53.0,
        "Latitude(deg)": 50.56676161309736,
        "Longitude(deg)": -36.01865576865715,
        "Mean Anomaly(deg)": 74.79097934582532,
        "RAAN(deg)": -0.02126957317638475,
        "Satellite Name": "Starlink Shell 1 3",
        "Satellite Number": 3,
        "Semi-Major Axis(m)": 6931778.249405717,
        "Time(s)": 410
    },
    {
        "Altitude(m)": 559355.271904311,
        "Argument of Periapsis(deg)": 0.014640296139471948,
        "Eccentricity": 0.0,
        "Inclination(deg)": 53.0,
        "Latitude(deg)": 50.76929679202598,
        "Longitude(deg)": -35.126398261662565,
        "Mean Anomaly(deg)": 75.41781054938203,
        "RAAN(deg)": -0.02178834325385755,
        "Satellite Name": "Starlink Shell 1 3",
        "Satellite Number": 3,
        "Semi-Major Axis(m)": 6931778.249405717,
        "Time(s)": 420
    },
    {
        "Altitude(m)": 559399.9723946985,
        "Argument of Periapsis(deg)": 0.014988874618983185,
        "Eccentricity": 0.0,
        "Inclination(deg)": 53.0,
        "Latitude(deg)": 50.96429262437417,
        "Longitude(deg)": -34.226202271534916,
        "Mean Anomaly(deg)": 76.04464175293874,
        "RAAN(deg)": -0.022307113331330352,
        "Satellite Name": "Starlink Shell 1 3",
        "Satellite Number": 3,
        "Semi-Major Axis(m)": 6931778.249405717,
        "Time(s)": 430
    },
    {
        "Altitude(m)": 559442.9044818736,
        "Argument of Periapsis(deg)": 0.015337453098494424,
        "Eccentricity": 0.0,
        "Inclination(deg)": 53.0,
        "Latitude(deg)": 51.15163404464521,
        "Longitude(deg)": -33.31825306707148,
        "Mean Anomaly(deg)": 76.67147295649545,
        "RAAN(deg)": -0.02282588340880315,
        "Satellite Name": "Starlink Shell 1 3",
        "Satellite Number": 3,
        "Semi-Major Axis(m)": 6931778.249405717,
        "Time(s)": 440
    },
    {
        "Altitude(m)": 559484.0422186275,
        "Argument of Periapsis(deg)": 0.01568603157800566,
        "Eccentricity": 0.0,
        "Inclination(deg)": 53.0,
        "Latitude(deg)": 51.33120833942541,
        "Longitude(deg)": -32.40275278358293,
        "Mean Anomaly(deg)": 77.29830416005217,
        "RAAN(deg)": -0.023344653486275947,
        "Satellite Name": "Starlink Shell 1 3",
        "Satellite Number": 3,
        "Semi-Major Axis(m)": 6931778.249405717,
        "Time(s)": 450
    },
    {
        "Altitude(m)": 559523.3607645803,
        "Argument of Periapsis(deg)": 0.0160346100575169,
        "Eccentricity": 0.0,
        "Inclination(deg)": 53.0,
        "Latitude(deg)": 51.502905428488276,
        "Longitude(deg)": -31.479919994265018,
        "Mean Anomaly(deg)": 77.92513536360889,
        "RAAN(deg)": -0.023863423563748747,
        "Satellite Name": "Starlink Shell 1 3",
        "Satellite Number": 3,
        "Semi-Major Axis(m)": 6931778.249405717,
        "Time(s)": 460
    },
    {
        "Altitude(m)": 559560.836398349,
        "Argument of Periapsis(deg)": 0.016383188537028134,
        "Eccentricity": 0.0,
        "Inclination(deg)": 53.0,
        "Latitude(deg)": 51.66661814928448,
        "Longitude(deg)": -30.54998921044891,
        "Mean Anomaly(deg)": 78.55196656716561,
        "RAAN(deg)": -0.024382193641221545,
        "Satellite Name": "Starlink Shell 1 3",
        "Satellite Number": 3,
        "Semi-Major Axis(m)": 6931778.249405717,
        "Time(s)": 470
    },
    {
        "Altitude(m)": 559596.4465291498,
        "Argument of Periapsis(deg)": 0.01673176701653937,
        "Eccentricity": 0.0,
        "Inclination(deg)": 53.0,
        "Latitude(deg)": 51.82224254342214,
        "Longitude(deg)": -29.613211819494033,
        "Mean Anomaly(deg)": 79.17879777072233,
        "RAAN(deg)": -0.024900963718694342,
        "Satellite Name": "Starlink Shell 1 3",
        "Satellite Number": 3,
        "Semi-Major Axis(m)": 6931778.249405717,
        "Time(s)": 480
    },
    {
        "Altitude(m)": 559630.1697078283,
        "Argument of Periapsis(deg)": 0.017080345496050607,
        "Eccentricity": 0.0,
        "Inclination(deg)": 53.0,
        "Latitude(deg)": 51.96967814364988,
        "Longitude(deg)": -28.669855430935446,
        "Mean Anomaly(deg)": 79.80562897427903,
        "RAAN(deg)": -0.02541973379616714,
        "Satellite Name": "Starlink Shell 1 3",
        "Satellite Number": 3,
        "Semi-Major Axis(m)": 6931778.249405717,
        "Time(s)": 490
    },
    {
        "Altitude(m)": 559661.985637363,
        "Argument of Periapsis(deg)": 0.017428923975561842,
        "Eccentricity": 0.0,
        "Inclination(deg)": 53.0,
        "Latitude(deg)": 52.10882825975664,
        "Longitude(deg)": -27.720203140657397,
        "Mean Anomaly(deg)": 80.43246017783575,
        "RAAN(deg)": -0.025938503873639943,
        "Satellite Name": "Starlink Shell 1 3",
        "Satellite Number": 3,
        "Semi-Major Axis(m)": 6931778.249405717,
        "Time(s)": 500
    },
    {
        "Altitude(m)": 559691.8751827594,
        "Argument of Periapsis(deg)": 0.01777750245507308,
        "Eccentricity": 0.0,
        "Inclination(deg)": 53.0,
        "Latitude(deg)": 52.23960026172305,
        "Longitude(deg)": -26.76455422348711,
        "Mean Anomaly(deg)": 81.05929138139247,
        "RAAN(deg)": -0.02645727395111274,
        "Satellite Name": "Starlink Shell 1 3",
        "Satellite Number": 3,
        "Semi-Major Axis(m)": 6931778.249405717,
        "Time(s)": 510
    },
    {
        "Altitude(m)": 559719.820380406,
        "Argument of Periapsis(deg)": 0.018126080934584315,
        "Eccentricity": 0.0,
        "Inclination(deg)": 53.0,
        "Latitude(deg)": 52.361905858390905,
        "Longitude(deg)": -25.803223226775728,
        "Mean Anomaly(deg)": 81.68612258494919,
        "RAAN(deg)": -0.026976044028585538,
        "Satellite Name": "Starlink Shell 1 3",
        "Satellite Number": 3,
        "Semi-Major Axis(m)": 6931778.249405717,
        "Time(s)": 520
    },
    {
        "Altitude(m)": 559745.8044468437,
        "Argument of Periapsis(deg)": 0.018474659414095554,
        "Eccentricity": 0.0,
        "Inclination(deg)": 53.0,
        "Latitude(deg)": 52.475661369935224,
        "Longitude(deg)": -24.836538976289006,
        "Mean Anomaly(deg)": 82.31295378850591,
        "RAAN(deg)": -0.02749481410605834,
        "Satellite Name": "Starlink Shell 1 3",
        "Satellite Number": 3,
        "Semi-Major Axis(m)": 6931778.249405717,
        "Time(s)": 530
    },
    {
        "Altitude(m)": 559769.8117869298,
        "Argument of Periapsis(deg)": 0.018823237893606792,
        "Eccentricity": 0.0,
        "Inclination(deg)": 53.0,
        "Latitude(deg)": 52.58078799216051,
        "Longitude(deg)": -23.864845008483034,
        "Mean Anomaly(deg)": 82.93978499206261,
        "RAAN(deg)": -0.028013584183531136,
        "Satellite Name": "Starlink Shell 1 3",
        "Satellite Number": 3,
        "Semi-Major Axis(m)": 6931778.249405717,
        "Time(s)": 540
    },
    {
        "Altitude(m)": 559791.8280014799,
        "Argument of Periapsis(deg)": 0.019171816373118027,
        "Eccentricity": 0.0,
        "Inclination(deg)": 53.0,
        "Latitude(deg)": 52.677212051038026,
        "Longitude(deg)": -22.88849840219693,
        "Mean Anomaly(deg)": 83.56661619561933,
        "RAAN(deg)": -0.028532354261003933,
        "Satellite Name": "Starlink Shell 1 3",
        "Satellite Number": 3,
        "Semi-Major Axis(m)": 6931778.249405717,
        "Time(s)": 550
    },
    {
        "Altitude(m)": 559811.8398942507,
        "Argument of Periapsis(deg)": 0.019520394852629266,
        "Eccentricity": 0.0,
        "Inclination(deg)": 53.0,
        "Latitude(deg)": 52.76486524548429,
        "Longitude(deg)": -21.907868525727878,
        "Mean Anomaly(deg)": 84.19344739917604,
        "RAAN(deg)": -0.029051124338476737,
        "Satellite Name": "Starlink Shell 1 3",
        "Satellite Number": 3,
        "Semi-Major Axis(m)": 6931778.249405717,
        "Time(s)": 560
    }
]